{"type": "FeatureCollection", "features": [ {"type": "Feature", "properties": {"norad_id": 35706, "name": "COSMOS 2251 DEB", "group": "cosmos-2251-debris", "lat": 51.43528654632262, "lon": 59.095186310784555, "alt_km": 789.8392621831845, "timestamp": "2025-12-27T20:30:59.676488+00:00", "meta": {"OBJECT_NAME": "COSMOS 2251 DEB", "OBJECT_ID": "1993-036AQB", "EPOCH": "2025-12-21T09:35:04.200288", "MEAN_MOTION": 13.65940195, "ECCENTRICITY": 0.03399329, "INCLINATION": 73.889, "RA_OF_ASC_NODE": 48.5024, "ARG_OF_PERICENTER": 96.6435, "MEAN_ANOMALY": 267.3485, "EPHEMERIS_TYPE": 0, "CLASSIFICATION_TYPE": "U", "NORAD_CAT_ID": 35706, "ELEMENT_SET_NO": 999, "REV_AT_EPOCH": 62180, "BSTAR": 0.00062720687, "MEAN_MOTION_DOT": 7.46e-06, "MEAN_MOTION_DDOT": 0}, "tle": {"line1": "1 35706U 93036AQB 25355.39935417  .00000746  00000+0  62721-3 0  9990", "line2": "2 35706  73.8890  48.5024 0339932  96.6435 267.3485 13.65940195621808"}}, "geometry": {"type": "Point", "coordinates": [59.095186310784555, 51.43528654632262]}}, {"type": "Feature", "properties": {"norad_id": 35711, "name": "COSMOS 2251 DEB", "group": "cosmos-2251-debris", "lat": 49.305799451259084, "lon": -149.1114676116912, "alt_km": 708.6530614559588, "timestamp": "2025-12-27T20:30:59.676498+00:00", "meta": {"OBJECT_NAME": "COSMOS 2251 DEB", "OBJECT_ID": "1993-036AQG", "EPOCH": "2025-12-26T06:33:16.354080", "MEAN_MOTION": 14.63833962, "ECCENTRICITY": 0.0085609, "INCLINATION": 74.0438, "RA_OF_ASC_NODE": 194.4903, "ARG_OF_PERICENTER": 292.4398, "MEAN_ANOMALY": 66.7719, "EPHEMERIS_TYPE": 0, "CLASSIFICATION_TYPE": "U", "NORAD_CAT_ID": 35711, "ELEMENT_SET_NO": 999, "REV_AT_EPOCH": 87969, "BSTAR": 0.00022439, "MEAN_MOTION_DOT": 1.201e-05, "MEAN_MOTION_DDOT": 0}, "tle": {"line1": "1 35711U 93036AQG 25360.27310595  .00001201  00000+0  22439-3 0  9992", "line2": "2 35711  74.0438 194.4903 0085609 292.4398  66.7719 14.63833962879690"}}, "geometry": {"type": "Point", "coordinates": [-149.1114676116912, 49.305799451259084]}}, {"type": "Feature", "properties": {"norad_id": 35716, "name": "COSMOS 2251 DEB", "group": "cosmos-2251-debris", "lat": -66.5151624565575, "lon": 123.92410473746439, "alt_km": 682.8491700000131, "timestamp": "2025-12-27T20:30:59.676508+00:00", "meta": {"OBJECT_NAME": "COSMOS 2251 DEB", "OBJECT_ID": "1993-036AQM", "EPOCH": "2025-12-27T05:11:32.876736", "MEAN_MOTION": 14.60102083, "ECCENTRICITY": 0.0089425, "INCLINATION": 73.9922, "RA_OF_ASC_NODE": 166.5006, "ARG_OF_PERICENTER": 3.8335, "MEAN_ANOMALY": 169.7581, "EPHEMERIS_TYPE": 0, "CLASSIFICATION_TYPE": "U", "NORAD_CAT_ID": 35716, "ELEMENT_SET_NO": 999, "REV_AT_EPOCH": 87838, "BSTAR": 0.0001247, "MEAN_MOTION_DOT": 6.01e-06, "MEAN_MOTION_DDOT": 0}, "tle": {"line1": "1 35716U 93036AQM 25361.21635274  .00000601  00000+0  12470-3 0  9993", "line2": "2 35716  73.9922 166.5006 0089425   3.8335 169.7581 14.60102083878386"}}, "geometry": {"type": "Point", "coordinates": [123.92410473746439, -66.5151624565575]}}, {"type": "Feature", "properties": {"norad_id": 35717, "name": "COSMOS 2251 DEB", "group": "cosmos-2251-debris", "lat": -33.919616407585, "lon": 178.83573561464652, "alt_km": 759.1315791768184, "timestamp": "2025-12-27T20:30:59.676518+00:00", "meta": {"OBJECT_NAME": "COSMOS 2251 DEB", "OBJECT_ID": "1993-036AQN", "EPOCH": "2025-12-25T21:56:54.451104", "MEAN_MOTION": 14.3857779, "ECCENTRICITY": 0.0077684, "INCLINATION": 74.1589, "RA_OF_ASC_NODE": 193.3922, "ARG_OF_PERICENTER": 48.9247, "MEAN_ANOMALY": 311.8583, "EPHEMERIS_TYPE": 0, "CLASSIFICATION_TYPE": "U", "NORAD_CAT_ID": 35717, "ELEMENT_SET_NO": 999, "REV_AT_EPOCH": 74289, "BSTAR": 0.0010482, "MEAN_MOTION_DOT": 3.298e-05, "MEAN_MOTION_DDOT": 0}, "tle": {"line1": "1 35717U 93036AQN 25359.91451911  .00003298  00000+0  10482-2 0  9997", "line2": "2 35717  74.1589 193.3922 0077684  48.9247 311.8583 14.38577790742894"}}, "geometry": {"type": "Point", "coordinates": [178.83573561464652, -33.919616407585]}}, {"type": "Feature", "properties": {"norad_id": 35718, "name": "COSMOS 2251 DEB", "group": "cosmos-2251-debris", "lat": -73.58681438154133, "lon": 24.29755902265385, "alt_km": 675.4779718138598, "timestamp": "2025-12-27T20:30:59.676528+00:00", "meta": {"OBJECT_NAME": "COSMOS 2251 DEB", "OBJECT_ID": "1993-036AQP", "EPOCH": "2025-12-25T13:20:05.416800", "MEAN_MOTION": 14.68890562, "ECCENTRICITY": 0.0009535, "INCLINATION": 74.0321, "RA_OF_ASC_NODE": 105.1659, "ARG_OF_PERICENTER": 151.5106, "MEAN_ANOMALY": 208.6587, "EPHEMERIS_TYPE": 0, "CLASSIFICATION_TYPE": "U", "NORAD_CAT_ID": 35718, "ELEMENT_SET_NO": 999, "REV_AT_EPOCH": 66028, "BSTAR": 0.0018343, "MEAN_MOTION_DOT": 0.00010721, "MEAN_MOTION_DDOT": 0}, "tle": {"line1": "1 35718U 93036AQP 25359.55561825  .00010721  00000+0  18343-2 0  9997", "line2": "2 35718  74.0321 105.1659 0009535 151.5106 208.6587 14.68890562660288"}}, "geometry": {"type": "Point", "coordinates": [24.29755902265385, -73.58681438154133]}}, {"type": "Feature", "properties": {"norad_id": 35721, "name": "COSMOS 2251 DEB", "group": "cosmos-2251-debris", "lat": -42.27196715353101, "lon": -14.925342920567363, "alt_km": 743.8424049524137, "timestamp": "2025-12-27T20:30:59.676538+00:00", "meta": {"OBJECT_NAME": "COSMOS 2251 DEB", "OBJECT_ID": "1993-036AQS", "EPOCH": "2025-12-26T16:40:46.291872", "MEAN_MOTION": 14.3445954, "ECCENTRICITY": 0.0147152, "INCLINATION": 73.9492, "RA_OF_ASC_NODE": 152.0388, "ARG_OF_PERICENTER": 295.636, "MEAN_ANOMALY": 62.965, "EPHEMERIS_TYPE": 0, "CLASSIFICATION_TYPE": "U", "NORAD_CAT_ID": 35721, "ELEMENT_SET_NO": 999, "REV_AT_EPOCH": 57989, "BSTAR": 0.0015887, "MEAN_MOTION_DOT": 5.031e-05, "MEAN_MOTION_DDOT": 0}, "tle": {"line1": "1 35721U 93036AQS 25360.69498023  .00005031  00000+0  15887-2 0  9995", "line2": "2 35721  73.9492 152.0388 0147152 295.6360  62.9650 14.34459540579897"}}, "geometry": {"type": "Point", "coordinates": [-14.925342920567363, -42.27196715353101]}}, {"type": "Feature", "properties": {"norad_id": 35724, "name": "COSMOS 2251 DEB", "group": "cosmos-2251-debris", "lat": 20.55885347462706, "lon": -79.92194188356258, "alt_km": 667.1416600987577, "timestamp": "2025-12-27T20:30:59.676548+00:00", "meta": {"OBJECT_NAME": "COSMOS 2251 DEB", "OBJECT_ID": "1993-036AQV", "EPOCH": "2025-12-26T03:15:24.595776", "MEAN_MOTION": 14.58230246, "ECCENTRICITY": 0.00590933, "INCLINATION": 74.0325, "RA_OF_ASC_NODE": 277.1841, "ARG_OF_PERICENTER": 66.8711, "MEAN_ANOMALY": 293.8665, "EPHEMERIS_TYPE": 0, "CLASSIFICATION_TYPE": "U", "NORAD_CAT_ID": 35724, "ELEMENT_SET_NO": 999, "REV_AT_EPOCH": 87724, "BSTAR": 0.00025889274, "MEAN_MOTION_DOT": 1.194e-05, "MEAN_MOTION_DDOT": 0}, "tle": {"line1": "1 35724U 93036AQV 25360.13570134  .00001194  00000+0  25889-3 0  9991", "line2": "2 35724  74.0325 277.1841 0059093  66.8711 293.8665 14.58230246877241"}}, "geometry": {"type": "Point", "coordinates": [-79.92194188356258, 20.55885347462706]}}, {"type": "Feature", "properties": {"norad_id": 35759, "name": "COSMOS 2251 DEB", "group": "cosmos-2251-debris", "lat": -58.83243441324836, "lon": 35.225704323636286, "alt_km": 655.5586316509944, "timestamp": "2025-12-27T20:30:59.676558+00:00", "meta": {"OBJECT_NAME": "COSMOS 2251 DEB", "OBJECT_ID": "1993-036ARD", "EPOCH": "2025-12-26T18:49:12.656064", "MEAN_MOTION": 14.64931508, "ECCENTRICITY": 0.00774279, "INCLINATION": 74.0357, "RA_OF_ASC_NODE": 189.037, "ARG_OF_PERICENTER": 304.0925, "MEAN_ANOMALY": 55.2911, "EPHEMERIS_TYPE": 0, "CLASSIFICATION_TYPE": "U", "NORAD_CAT_ID": 35759, "ELEMENT_SET_NO": 999, "REV_AT_EPOCH": 66341, "BSTAR": 0.0002587805, "MEAN_MOTION_DOT": 1.413e-05, "MEAN_MOTION_DDOT": 0}, "tle": {"line1": "1 35759U 93036ARD 25360.78417426  .00001413  00000+0  25878-3 0  9996", "line2": "2 35759  74.0357 189.0370 0077427 304.0925  55.2911 14.64931508663419"}}, "geometry": {"type": "Point", "coordinates": [35.225704323636286, -58.83243441324836]}}, {"type": "Feature", "properties": {"norad_id": 35771, "name": "COSMOS 2251 DEB", "group": "cosmos-2251-debris", "lat": -18.803155096131352, "lon": -81.79158186534809, "alt_km": 937.0053130721899, "timestamp": "2025-12-27T20:30:59.676568+00:00", "meta": {"OBJECT_NAME": "COSMOS 2251 DEB", "OBJECT_ID": "1993-036ARR", "EPOCH": "2025-12-15T14:45:16.238592", "MEAN_MOTION": 14.13430046, "ECCENTRICITY": 0.02280549, "INCLINATION": 74.1561, "RA_OF_ASC_NODE": 305.27, "ARG_OF_PERICENTER": 242.9998, "MEAN_ANOMALY": 114.7698, "EPHEMERIS_TYPE": 0, "CLASSIFICATION_TYPE": "U", "NORAD_CAT_ID": 35771, "ELEMENT_SET_NO": 999, "REV_AT_EPOCH": 82901, "BSTAR": 0.0026764238, "MEAN_MOTION_DOT": 6.427e-05, "MEAN_MOTION_DDOT": 0}, "tle": {"line1": "1 35771U 93036ARR 25349.61477128  .00006427  00000+0  26764-2 0  9998", "line2": "2 35771  74.1561 305.2700 0228054 242.9998 114.7698 14.13430046829012"}}, "geometry": {"type": "Point", "coordinates": [-81.79158186534809, -18.803155096131352]}}, {"type": "Feature", "properties": {"norad_id": 35773, "name": "COSMOS 2251 DEB", "group": "cosmos-2251-debris", "lat": -24.016288095422755, "lon": -55.51268009024278, "alt_km": 712.7674791988302, "timestamp": "2025-12-27T20:30:59.676578+00:00", "meta": {"OBJECT_NAME": "COSMOS 2251 DEB", "OBJECT_ID": "1993-036ART", "EPOCH": "2025-12-27T05:51:09.224064", "MEAN_MOTION": 14.6215252, "ECCENTRICITY": 0.0045146, "INCLINATION": 74.0084, "RA_OF_ASC_NODE": 313, "ARG_OF_PERICENTER": 108.6592, "MEAN_ANOMALY": 251.9484, "EPHEMERIS_TYPE": 0, "CLASSIFICATION_TYPE": "U", "NORAD_CAT_ID": 35773, "ELEMENT_SET_NO": 999, "REV_AT_EPOCH": 87051, "BSTAR": 0.00072197, "MEAN_MOTION_DOT": 3.656e-05, "MEAN_MOTION_DDOT": 0}, "tle": {"line1": "1 35773U 93036ART 25361.24385676  .00003656  00000+0  72197-3 0  9992", "line2": "2 35773  74.0084 313.0000 0045146 108.6592 251.9484 14.62152520870510"}}, "geometry": {"type": "Point", "coordinates": [-55.51268009024278, -24.016288095422755]}}]}